{"type": "FeatureCollection", "features": [ {"type": "Feature", "properties": {"norad_id": 38953, "name": "BEIDOU-2 G6 (C02)", "group": "beidou", "lat": -3.976317780676434, "lon": -14.159020126790878, "alt_km": 35755.330696458455, "timestamp": "2025-12-20T11:30:28.642384+00:00", "meta": {"OBJECT_NAME": "BEIDOU-2 G6 (C02)", "OBJECT_ID": "2012-059A", "EPOCH": "2025-12-20T01:38:48.260832", "MEAN_MOTION": 1.00269041, "ECCENTRICITY": 0.0008244, "INCLINATION": 3.9668, "RA_OF_ASC_NODE": 75.4348, "ARG_OF_PERICENTER": 292.312, "MEAN_ANOMALY": 189.8125, "EPHEMERIS_TYPE": 0, "CLASSIFICATION_TYPE": "U", "NORAD_CAT_ID": 38953, "ELEMENT_SET_NO": 999, "REV_AT_EPOCH": 4811, "BSTAR": 0, "MEAN_MOTION_DOT": -1.53e-06, "MEAN_MOTION_DDOT": 0}, "tle": {"line1": "1 38953U 12059A   25354.06861413 -.00000153  00000+0  00000+0 0  9991", "line2": "2 38953   3.9668  75.4348 0008244 292.3120 189.8125  1.00269041 48111"}}, "geometry": {"type": "Point", "coordinates": [-14.159020126790878, -3.976317780676434]}}, {"type": "Feature", "properties": {"norad_id": 40549, "name": "BEIDOU-3S IGSO-1S (C31)", "group": "beidou", "lat": 40.49350156739112, "lon": -15.743941213893601, "alt_km": 35884.398988163906, "timestamp": "2025-12-20T11:30:28.642396+00:00", "meta": {"OBJECT_NAME": "BEIDOU-3S IGSO-1S (C31)", "OBJECT_ID": "2015-019A", "EPOCH": "2025-12-18T19:55:38.829792", "MEAN_MOTION": 1.00292047, "ECCENTRICITY": 0.0036331, "INCLINATION": 49.5404, "RA_OF_ASC_NODE": 297.6395, "ARG_OF_PERICENTER": 194.0028, "MEAN_ANOMALY": 349.3621, "EPHEMERIS_TYPE": 0, "CLASSIFICATION_TYPE": "U", "NORAD_CAT_ID": 40549, "ELEMENT_SET_NO": 999, "REV_AT_EPOCH": 3926, "BSTAR": 0, "MEAN_MOTION_DOT": -1.83e-06, "MEAN_MOTION_DDOT": 0}, "tle": {"line1": "1 40549U 15019A   25352.83031053 -.00000183  00000+0  00000+0 0  9999", "line2": "2 40549  49.5404 297.6395 0036331 194.0028 349.3621  1.00292047 39264"}}, "geometry": {"type": "Point", "coordinates": [-15.743941213893601, 40.49350156739112]}}, {"type": "Feature", "properties": {"norad_id": 40748, "name": "BEIDOU-3S M2S (C58)", "group": "beidou", "lat": -21.292920274483738, "lon": -67.63938512067615, "alt_km": 21516.57104592379, "timestamp": "2025-12-20T11:30:28.642408+00:00", "meta": {"OBJECT_NAME": "BEIDOU-3S M2S (C58)", "OBJECT_ID": "2015-037A", "EPOCH": "2025-12-19T23:33:43.308864", "MEAN_MOTION": 1.86229502, "ECCENTRICITY": 0.0012181, "INCLINATION": 55.0322, "RA_OF_ASC_NODE": 308.2141, "ARG_OF_PERICENTER": 268.7926, "MEAN_ANOMALY": 91.0586, "EPHEMERIS_TYPE": 0, "CLASSIFICATION_TYPE": "U", "NORAD_CAT_ID": 40748, "ELEMENT_SET_NO": 999, "REV_AT_EPOCH": 7078, "BSTAR": 0, "MEAN_MOTION_DOT": -7.2e-07, "MEAN_MOTION_DDOT": 0}, "tle": {"line1": "1 40748U 15037A   25353.98175126 -.00000072  00000+0  00000+0 0  9994", "line2": "2 40748  55.0322 308.2141 0012181 268.7926  91.0586  1.86229502 70780"}}, "geometry": {"type": "Point", "coordinates": [-67.63938512067615, -21.292920274483738]}}, {"type": "Feature", "properties": {"norad_id": 40749, "name": "BEIDOU-3S M1S (C57)", "group": "beidou", "lat": -0.09158442390544301, "lon": 128.22776846945803, "alt_km": 21536.165784768404, "timestamp": "2025-12-20T11:30:28.642419+00:00", "meta": {"OBJECT_NAME": "BEIDOU-3S M1S (C57)", "OBJECT_ID": "2015-037B", "EPOCH": "2025-12-19T03:17:32.841888", "MEAN_MOTION": 1.86254044, "ECCENTRICITY": 0.0003631, "INCLINATION": 55.0296, "RA_OF_ASC_NODE": 308.2337, "ARG_OF_PERICENTER": 1.0538, "MEAN_ANOMALY": 358.9355, "EPHEMERIS_TYPE": 0, "CLASSIFICATION_TYPE": "U", "NORAD_CAT_ID": 40749, "ELEMENT_SET_NO": 999, "REV_AT_EPOCH": 7077, "BSTAR": 0, "MEAN_MOTION_DOT": -7.8e-07, "MEAN_MOTION_DDOT": 0}, "tle": {"line1": "1 40749U 15037B   25353.13718567 -.00000078  00000+0  00000+0 0  9990", "line2": "2 40749  55.0296 308.2337 0003631   1.0538 358.9355  1.86254044 70772"}}, "geometry": {"type": "Point", "coordinates": [128.22776846945803, -0.09158442390544301]}}, {"type": "Feature", "properties": {"norad_id": 40938, "name": "BEIDOU-3S IGSO-2S (C56)", "group": "beidou", "lat": 49.16163197256034, "lon": 0.2919668808225125, "alt_km": 35791.32823642266, "timestamp": "2025-12-20T11:30:28.642431+00:00", "meta": {"OBJECT_NAME": "BEIDOU-3S IGSO-2S (C56)", "OBJECT_ID": "2015-053A", "EPOCH": "2025-12-19T17:08:36.001248", "MEAN_MOTION": 1.00268614, "ECCENTRICITY": 0.0060519, "INCLINATION": 49.4997, "RA_OF_ASC_NODE": 260.9235, "ARG_OF_PERICENTER": 188.6334, "MEAN_ANOMALY": 352.0393, "EPHEMERIS_TYPE": 0, "CLASSIFICATION_TYPE": "U", "NORAD_CAT_ID": 40938, "ELEMENT_SET_NO": 999, "REV_AT_EPOCH": 3755, "BSTAR": 0, "MEAN_MOTION_DOT": -1.11e-06, "MEAN_MOTION_DDOT": 0}, "tle": {"line1": "1 40938U 15053A   25353.71430557 -.00000111  00000+0  00000+0 0  9990", "line2": "2 40938  49.4997 260.9235 0060519 188.6334 352.0393  1.00268614 37552"}}, "geometry": {"type": "Point", "coordinates": [0.2919668808225125, 49.16163197256034]}}, {"type": "Feature", "properties": {"norad_id": 41434, "name": "BEIDOU-2 IGSO-6 (C13)", "group": "beidou", "lat": -36.881535091250726, "lon": 14.169895227187792, "alt_km": 35765.12339533275, "timestamp": "2025-12-20T11:30:28.642443+00:00", "meta": {"OBJECT_NAME": "BEIDOU-2 IGSO-6 (C13)", "OBJECT_ID": "2016-021A", "EPOCH": "2025-12-18T14:33:38.837664", "MEAN_MOTION": 1.00292299, "ECCENTRICITY": 0.00610054, "INCLINATION": 59.9732, "RA_OF_ASC_NODE": 39.8392, "ARG_OF_PERICENTER": 230.2031, "MEAN_ANOMALY": 129.1398, "EPHEMERIS_TYPE": 0, "CLASSIFICATION_TYPE": "U", "NORAD_CAT_ID": 41434, "ELEMENT_SET_NO": 999, "REV_AT_EPOCH": 3566, "BSTAR": 0, "MEAN_MOTION_DOT": -1.41e-06, "MEAN_MOTION_DDOT": 0}, "tle": {"line1": "1 41434U 16021A   25352.60669951 -.00000141  00000+0  00000+0 0  9990", "line2": "2 41434  59.9732  39.8392 0061005 230.2031 129.1398  1.00292299 35667"}}, "geometry": {"type": "Point", "coordinates": [14.169895227187792, -36.881535091250726]}}, {"type": "Feature", "properties": {"norad_id": 41586, "name": "BEIDOU-2 G7 (C03)", "group": "beidou", "lat": -1.4570482795525415, "lon": 12.342219044312529, "alt_km": 35775.00416917997, "timestamp": "2025-12-20T11:30:28.642467+00:00", "meta": {"OBJECT_NAME": "BEIDOU-2 G7 (C03)", "OBJECT_ID": "2016-037A", "EPOCH": "2025-12-19T15:57:04.317984", "MEAN_MOTION": 1.00271972, "ECCENTRICITY": 0.0005143, "INCLINATION": 1.7733, "RA_OF_ASC_NODE": 67.8469, "ARG_OF_PERICENTER": 2.9481, "MEAN_ANOMALY": 7.4377, "EPHEMERIS_TYPE": 0, "CLASSIFICATION_TYPE": "U", "NORAD_CAT_ID": 41586, "ELEMENT_SET_NO": 999, "REV_AT_EPOCH": 509, "BSTAR": 0, "MEAN_MOTION_DOT": -3.3e-06, "MEAN_MOTION_DDOT": 0}, "tle": {"line1": "1 41586U 16037A   25353.66463331 -.00000330  00000+0  00000+0 0  9996", "line2": "2 41586   1.7733  67.8469 0005143   2.9481   7.4377  1.00271972  5095"}}, "geometry": {"type": "Point", "coordinates": [12.342219044312529, -1.4570482795525415]}}, {"type": "Feature", "properties": {"norad_id": 43001, "name": "BEIDOU-3 M1 (C19)", "group": "beidou", "lat": 54.6345858038356, "lon": -179.52451997444533, "alt_km": 21546.743220437565, "timestamp": "2025-12-20T11:30:28.642494+00:00", "meta": {"OBJECT_NAME": "BEIDOU-3 M1 (C19)", "OBJECT_ID": "2017-069A", "EPOCH": "2025-12-19T06:04:23.941632", "MEAN_MOTION": 1.86231412, "ECCENTRICITY": 0.0009566, "INCLINATION": 56.5322, "RA_OF_ASC_NODE": 69.0186, "ARG_OF_PERICENTER": 302.1864, "MEAN_ANOMALY": 57.7554, "EPHEMERIS_TYPE": 0, "CLASSIFICATION_TYPE": "U", "NORAD_CAT_ID": 43001, "ELEMENT_SET_NO": 999, "REV_AT_EPOCH": 5525, "BSTAR": 0, "MEAN_MOTION_DOT": -5.5e-07, "MEAN_MOTION_DDOT": 0}, "tle": {"line1": "1 43001U 17069A   25353.25305488 -.00000055  00000+0  00000+0 0  9993", "line2": "2 43001  56.5322  69.0186 0009566 302.1864  57.7554  1.86231412 55251"}}, "geometry": {"type": "Point", "coordinates": [-179.52451997444533, 54.6345858038356]}}, {"type": "Feature", "properties": {"norad_id": 43002, "name": "BEIDOU-3 M2 (C20)", "group": "beidou", "lat": 29.686696128622167, "lon": -133.0868073035967, "alt_km": 21542.515498493227, "timestamp": "2025-12-20T11:30:28.642508+00:00", "meta": {"OBJECT_NAME": "BEIDOU-3 M2 (C20)", "OBJECT_ID": "2017-069B", "EPOCH": "2025-12-19T04:35:39.539904", "MEAN_MOTION": 1.86231009, "ECCENTRICITY": 0.0006519, "INCLINATION": 56.532, "RA_OF_ASC_NODE": 69.0565, "ARG_OF_PERICENTER": 330.2695, "MEAN_ANOMALY": 29.7276, "EPHEMERIS_TYPE": 0, "CLASSIFICATION_TYPE": "U", "NORAD_CAT_ID": 43002, "ELEMENT_SET_NO": 999, "REV_AT_EPOCH": 5524, "BSTAR": 0, "MEAN_MOTION_DOT": -5.5e-07, "MEAN_MOTION_DDOT": 0}, "tle": {"line1": "1 43002U 17069B   25353.19142986 -.00000055  00000+0  00000+0 0  9999", "line2": "2 43002  56.5320  69.0565 0006519 330.2695  29.7276  1.86231009 55241"}}, "geometry": {"type": "Point", "coordinates": [-133.0868073035967, 29.686696128622167]}}, {"type": "Feature", "properties": {"norad_id": 43107, "name": "BEIDOU-3 M7 (C27)", "group": "beidou", "lat": -34.47169061261086, "lon": -80.80300945500201, "alt_km": 21535.245361416928, "timestamp": "2025-12-20T11:30:28.642520+00:00", "meta": {"OBJECT_NAME": "BEIDOU-3 M7 (C27)", "OBJECT_ID": "2018-003A", "EPOCH": "2025-12-20T00:11:53.291616", "MEAN_MOTION": 1.86232576, "ECCENTRICITY": 0.0002905, "INCLINATION": 54.4901, "RA_OF_ASC_NODE": 308.5614, "ARG_OF_PERICENTER": 68.4199, "MEAN_ANOMALY": 291.6021, "EPHEMERIS_TYPE": 0, "CLASSIFICATION_TYPE": "U", "NORAD_CAT_ID": 43107, "ELEMENT_SET_NO": 999, "REV_AT_EPOCH": 5401, "BSTAR": 0, "MEAN_MOTION_DOT": -7.3e-07, "MEAN_MOTION_DDOT": 0}, "tle": {"line1": "1 43107U 18003A   25354.00825569 -.00000073  00000+0  00000+0 0  9990", "line2": "2 43107  54.4901 308.5614 0002905  68.4199 291.6021  1.86232576 54011"}}, "geometry": {"type": "Point", "coordinates": [-80.80300945500201, -34.47169061261086]}}]}